NORAD_CAT_ID,OBJECT_NAME,OBJECT_TYPE,EPOCH,MEAN_MOTION,ECCENTRICITY,INCLINATION,RA_OF_ASC_NODE,ARG_OF_PERICENTER,MEAN_ANOMALY,BSTAR,MEAN_MOTION_DOT,MEAN_MOTION_DDOT,TLE_LINE0,TLE_LINE1,TLE_LINE2,SEMIMAJOR_AXIS,PERIOD,APOGEE,PERIGEE,DECAYED
55632.0,STARLINK-5546,PAYLOAD,2023-11-22 19:45:18,14.98333672,0.0002885,69.9981,157.0253,269.2325,90.8504,4.1618e-05,4.04e-06,0.0,0 STARLINK-5546,1 55632U 23021E   23326.82313227  .00000404  00000-0  41618-4 0  9995,2 55632  69.9981 157.0253 0002885 269.2325  90.8504 14.98333672 42491,6950.182,96.107,574.052,570.041,0.0
55632.0,STARLINK-5546,PAYLOAD,2023-11-22 21:21:26,14.98333863,0.0002886,69.9981,156.857,269.2768,90.806,4.3846e-05,4.3e-06,0.0,0 STARLINK-5546,1 55632U 23021E   23326.88989209  .00000430  00000-0  43846-4 0  9994,2 55632  69.9981 156.8570 0002886 269.2768  90.8060 14.98333863 42806,6950.181,96.107,574.052,570.04,0.0
55632.0,STARLINK-5546,PAYLOAD,2023-11-23 13:22:47,14.9832911,0.0002797,69.9982,155.1743,271.3232,88.7607,-2.3041e-05,-3.68e-06,0.0,0 STARLINK-5546,1 55632U 23021E   23327.55749670 -.00000368  00000-0 -23041-4 0  9992,2 55632  69.9982 155.1743 0002797 271.3232  88.7607 14.98329110 42906,6950.196,96.107,574.005,570.117,0.0
55632.0,STARLINK-5546,PAYLOAD,2023-11-23 19:47:20,14.98327713,0.0002785,69.9983,154.5007,272.8974,87.1866,-1.5862e-05,-2.82e-06,0.0,0 STARLINK-5546,1 55632U 23021E   23327.82453761 -.00000282  00000-0 -15862-4 0  9992,2 55632  69.9983 154.5007 0002785 272.8974  87.1866 14.98327713 42647,6950.2,96.107,574.001,570.129,0.0
55632.0,STARLINK-5546,PAYLOAD,2023-11-23 21:23:28,14.98327598,0.0002783,69.9983,154.3324,272.8679,87.2162,-1.6853e-05,-2.94e-06,0.0,0 STARLINK-5546,1 55632U 23021E   23327.89129779 -.00000294  00000-0 -16853-4 0  9992,2 55632  69.9983 154.3324 0002783 272.8679  87.2162 14.98327598 42952,6950.2,96.107,574.0,570.131,0.0
55632.0,STARLINK-5546,PAYLOAD,2023-11-24 13:24:48,14.98333326,0.0002759,69.9985,152.6494,265.3799,94.7045,1.2246e-05,5.3e-07,0.0,0 STARLINK-5546,1 55632U 23021E   23328.55889261  .00000053  00000-0  12246-4 0  9998,2 55632  69.9985 152.6494 0002759 265.3799  94.7045 14.98333326 43057,6950.183,96.107,573.965,570.13,0.0
55632.0,STARLINK-5546,PAYLOAD,2023-11-24 19:49:20,14.98333712,0.0002747,69.9986,151.9761,265.2676,94.817,1.8925e-05,1.33e-06,0.0,0 STARLINK-5546,1 55632U 23021E   23328.82593164  .00000133  00000-0  18925-4 0  9991,2 55632  69.9986 151.9761 0002747 265.2676  94.8170 14.98333712 42796,6950.181,96.107,573.956,570.137,0.0
55632.0,STARLINK-5546,PAYLOAD,2023-11-24 21:25:28,14.98333516,0.0002757,69.9986,151.8078,265.8099,94.2745,1.5894e-05,9.7e-07,0.0,0 STARLINK-5546,1 55632U 23021E   23328.89269176  .00000097  00000-0  15894-4 0  9992,2 55632  69.9986 151.8078 0002757 265.8099  94.2745 14.98333516 43102,6950.182,96.107,573.963,570.131,0.0
55632.0,STARLINK-5546,PAYLOAD,2023-11-25 13:26:49,14.98329452,0.0002777,69.9987,150.1247,264.887,95.1972,4.9e-05,4.92e-06,0.0,0 STARLINK-5546,1 55632U 23021E   23329.56029281  .00000492  00000-0  49000-4 0  9993,2 55632  69.9987 150.1247 0002777 264.8870  95.1972 14.98329452 43208,6950.195,96.107,573.99,570.13,0.0
55632.0,STARLINK-5546,PAYLOAD,2023-11-25 21:27:29,14.98331233,0.0002731,69.9988,149.2831,263.4599,96.6249,6.6911e-05,7.05e-06,0.0,0 STARLINK-5546,1 55632U 23021E   23329.89409120  .00000705  00000-0  66911-4 0  9990,2 55632  69.9988 149.2831 0002731 263.4599  96.6249 14.98331233 43258,6950.189,96.107,573.952,570.156,0.0
55632.0,STARLINK-5546,PAYLOAD,2023-11-26 13:28:50,14.98333003,0.0002632,69.9991,147.6003,258.2395,101.8469,2.2999e-05,1.81e-06,0.0,0 STARLINK-5546,1 55632U 23021E   23330.56168986  .00000181  00000-0  22999-4 0  9994,2 55632  69.9991 147.6003 0002632 258.2395 101.8469 14.98333003 43352,6950.184,96.107,573.878,570.219,0.0
55632.0,STARLINK-5546,PAYLOAD,2023-11-26 19:53:22,14.98331544,0.0002664,69.9991,146.927,259.8363,100.2496,3.4802e-06,-5.1e-07,0.0,0 STARLINK-5546,1 55632U 23021E   23330.82873087 -.00000051  00000-0  34802-5 0  9992,2 55632  69.9991 146.9270 0002664 259.8363 100.2496 14.98331544 43099,6950.188,96.107,573.905,570.202,0.0
55632.0,STARLINK-5546,PAYLOAD,2023-11-26 21:29:30,14.98331609,0.0002726,69.9989,146.7583,264.4495,95.6353,-3.0844e-06,-1.3e-06,0.0,0 STARLINK-5546,1 55632U 23021E   23330.89549098 -.00000130  00000-0 -30844-5 0  9992,2 55632  69.9989 146.7583 0002726 264.4495  95.6353 14.98331609 43404,6950.188,96.107,573.948,570.158,0.0
55632.0,STARLINK-5546,PAYLOAD,2023-11-27 13:30:50,14.98330623,0.0002387,69.9992,145.0726,253.1811,106.9086,9.6015e-05,1.053e-05,0.0,0 STARLINK-5546,1 55632U 23021E   23331.56308682  .00001053  00000-0  96015-4 0  9993,2 55632  69.9992 145.0726 0002387 253.1811 106.9086 14.98330623 43504,6950.191,96.107,573.715,570.397,0.0
55632.0,STARLINK-5546,PAYLOAD,2023-11-27 19:55:19,14.9836787,0.0002669,69.9996,144.4038,252.3642,107.7226,0.00040321,4.726e-05,0.0,0 STARLINK-5546,1 55632U 23021E   23331.83009211  .00004726  00000-0  40321-3 0  9997,2 55632  69.9996 144.4038 0002669 252.3642 107.7226 14.98367870 43243,6950.076,96.105,573.796,570.086,0.0
55632.0,STARLINK-5546,PAYLOAD,2023-11-27 21:31:27,14.98375582,0.0003009,69.9987,144.2334,266.931,93.1504,0.00045594,5.358e-05,0.0,0 STARLINK-5546,1 55632U 23021E   23331.89684333  .00005358  00000-0  45594-3 0  9996,2 55632  69.9987 144.2334 0003009 266.9310  93.1504 14.98375582 43552,6950.052,96.104,574.008,569.826,0.0
55632.0,STARLINK-5546,PAYLOAD,2023-11-28 11:56:43,14.98326762,0.0002804,69.9989,142.7184,272.513,87.5708,-7.0653e-05,-9.36e-06,0.0,0 STARLINK-5546,1 55632U 23021E   23332.49772567 -.00000936  00000-0 -70653-4 0  9994,2 55632  69.9989 142.7184 0002804 272.5130  87.5708 14.98326762 43341,6950.203,96.107,574.017,570.119,0.0
55632.0,STARLINK-5546,PAYLOAD,2023-11-28 13:32:51,14.98326567,0.0002813,69.9989,142.5502,272.0872,87.9965,-7.3022e-05,-9.64e-06,0.0,0 STARLINK-5546,1 55632U 23021E   23332.56448585 -.00000964  00000-0 -73022-4 0  9996,2 55632  69.9989 142.5502 0002813 272.0872  87.9965 14.98326567 43657,6950.204,96.107,574.024,570.113,0.0
55632.0,STARLINK-5546,PAYLOAD,2023-11-28 19:57:23,14.98325818,0.0002886,69.9991,141.8774,270.9863,89.0965,-7.7964e-05,-1.023e-05,0.0,0 STARLINK-5546,1 55632U 23021E   23332.83152651 -.00001023  00000-0 -77964-4 0  9998,2 55632  69.9991 141.8774 0002886 270.9863  89.0965 14.98325818 43695,6950.206,96.107,574.077,570.065,0.0
55632.0,STARLINK-5546,PAYLOAD,2023-11-29 11:58:44,14.98338489,0.0003062,69.9996,140.1942,274.1351,85.9458,-0.00025298,-3.111e-05,0.0,0 STARLINK-5546,1 55632U 23021E   23333.49912538 -.00003111  00000-0 -25298-3 0  9991,2 55632  69.9996 140.1942 0003062 274.1351  85.9458 14.98338489 43492,6950.167,96.106,574.16,569.903,0.0
55632.0,STARLINK-5546,PAYLOAD,2023-11-29 13:34:52,14.98337484,0.0003073,69.9995,140.0259,273.9949,86.0859,-0.00025127,-3.09e-05,0.0,0 STARLINK-5546,1 55632U 23021E   23333.56588558 -.00003090  00000-0 -25127-3 0  9997,2 55632  69.9995 140.0259 0003073 273.9949  86.0859 14.98337484 43809,6950.17,96.107,574.171,569.899,0.0
55632.0,STARLINK-5546,PAYLOAD,2023-11-30 12:00:45,14.98321213,0.0002852,69.9992,137.6692,270.577,89.5062,6.8337e-05,7.22e-06,0.0,0 STARLINK-5546,1 55632U 23021E   23334.50052610  .00000722  00000-0  68337-4 0  9995,2 55632  69.9992 137.6692 0002852 270.5770  89.5062 14.98321213 43647,6950.22,96.108,574.067,570.103,0.0
55632.0,STARLINK-5546,PAYLOAD,2023-12-01 12:02:46,14.98326626,0.0003107,69.9985,135.1434,275.0664,85.0141,7.8038e-05,8.38e-06,0.0,0 STARLINK-5546,1 55632U 23021E   23335.50192665  .00000838  00000-0  78038-4 0  9998,2 55632  69.9985 135.1434 0003107 275.0664  85.0141 14.98326626 43790,6950.203,96.107,574.228,569.909,0.0
55632.0,STARLINK-5546,PAYLOAD,2023-12-01 20:03:24,14.98356293,0.000296,69.9991,134.3025,261.2034,98.879,0.00038977,4.564e-05,0.0,0 STARLINK-5546,1 55632U 23021E   23335.83569820  .00004564  00000-0  38977-3 0  9992,2 55632  69.9991 134.3025 0002960 261.2034  98.8790 14.98356293 43849,6950.112,96.105,574.034,569.919,0.0
55632.0,STARLINK-5546,PAYLOAD,2023-12-02 12:04:46,14.9833787,0.0002818,69.9992,132.62,258.3433,101.741,0.000119,1.327e-05,0.0,0 STARLINK-5546,1 55632U 23021E   23336.50331337  .00001327  00000-0  11900-3 0  9998,2 55632  69.9992 132.6200 0002818 258.3433 101.7410 14.98337870 43942,6950.169,96.106,573.992,570.075,0.0
55632.0,STARLINK-5546,PAYLOAD,2023-12-02 13:40:55,14.98324897,0.0002772,69.9991,132.4516,258.0524,102.0325,-3.2086e-05,-4.76e-06,0.0,0 STARLINK-5546,1 55632U 23021E   23336.57008399 -.00000476  00000-0 -32086-4 0  9999,2 55632  69.9991 132.4516 0002772 258.0524 102.0325 14.98324897 44255,6950.209,96.107,574.0,570.147,0.0
55632.0,STARLINK-5546,PAYLOAD,2023-12-02 20:05:27,14.98325404,0.0002482,69.9994,131.7782,285.3068,74.7816,-7.5721e-06,-1.83e-06,0.0,0 STARLINK-5546,1 55632U 23021E   23336.83712641 -.00000183  00000-0 -75721-5 0  9999,2 55632  69.9994 131.7782 0002482 285.3068  74.7816 14.98325404 43994,6950.207,96.107,573.797,570.347,0.0
55632.0,STARLINK-5546,PAYLOAD,2023-12-03 12:06:49,14.98318331,0.0002945,69.9987,130.0951,265.23,94.8522,-0.0001843,-2.291e-05,0.0,0 STARLINK-5546,1 55632U 23021E   23337.50473591 -.00002291  00000-0 -18430-3 0  9996,2 55632  69.9987 130.0951 0002945 265.2300  94.8522 14.98318331 44096,6950.229,96.108,574.141,570.047,0.0
55632.0,STARLINK-5546,PAYLOAD,2023-12-03 13:42:57,14.98318533,0.0002953,69.9987,129.9269,264.578,95.5043,-0.00020121,-2.492e-05,0.0,0 STARLINK-5546,1 55632U 23021E   23337.57149658 -.00002492  00000-0 -20121-3 0  9990,2 55632  69.9987 129.9269 0002953 264.5780  95.5043 14.98318533 44403,6950.228,96.108,574.146,570.041,0.0
55632.0,STARLINK-5546,PAYLOAD,2023-12-04 12:08:51,14.98275811,0.0002531,69.9993,127.5703,259.6589,100.4285,0.00031796,3.698e-05,0.0,0 STARLINK-5546,1 55632U 23021E   23338.50615372  .00003698  00000-0  31796-3 0  9992,2 55632  69.9993 127.5703 0002531 259.6589 100.4285 14.98275811 44248,6950.36,96.11,573.985,570.466,0.0
